STARLINK-2022           
1 47643U 21012Z   24226.91322027  .00026555  00000+0  17949-2 0  9996
2 47643  53.0525 102.9110 0003578  86.0652 274.0746 15.06397249193931
